[{"OBJECT_NAME":"JILIN-1 GAOFEN 3D06","OBJECT_ID":"2022-046D","EPOCH":"2026-03-09T20:32:42.708768","MEAN_MOTION":15.77506946,"ECCENTRICITY":0.00026293,"INCLINATION":97.4988,"RA_OF_ASC_NODE":185.9829,"ARG_OF_PERICENTER":243.9141,"MEAN_ANOMALY":116.1854,"EPHEMERIS_TYPE":0,"CLASSIFICATION_TYPE":"U","NORAD_CAT_ID":52391,"ELEMENT_SET_NO":999,"REV_AT_EPOCH":21494,"BSTAR":0.0011303209,"MEAN_MOTION_DOT":0.00190664,"MEAN_MOTION_DDOT":0},{"OBJECT_NAME":"STARLINK-36390","OBJECT_ID":"2026-035H","EPOCH":"2026-03-09T22:00:01.999584","MEAN_MOTION":15.87116489,"ECCENTRICITY":0.00011886,"INCLINATION":97.2709,"RA_OF_ASC_NODE":1.2674,"ARG_OF_PERICENTER":83.4181,"MEAN_ANOMALY":347.5076,"EPHEMERIS_TYPE":0,"CLASSIFICATION_TYPE":"U","NORAD_CAT_ID":67886,"ELEMENT_SET_NO":999,"REV_AT_EPOCH":384,"BSTAR":-0.0053486508,"MEAN_MOTION_DOT":-0.01227975,"MEAN_MOTION_DDOT":0}]
